CSS (TIANHE)            
1 48274U 21035A   26198.26602711  .00001169  00000+0  19327-4 0  9999
2 48274  41.4689 139.2812 0001963 303.2337  56.8313 15.58142333297868
